      2.10          N: GNSS NAV DATA                        RINEX VERSION / TYPE
fic2rin                                 02/17/2022 00:17:40 PGM / RUN BY / DATE
                                                            END OF HEADER
20 22  2 16  6  0  0.0 5.166842602193e-04-2.273736754432e-13 0.000000000000e+00
    7.200000000000e+01-1.051250000000e+02 5.285934466102e-09-1.094142658679e+00
   -5.286186933517e-06 5.150394630618e-03 2.397224307060e-06 5.153751817703e+03
    2.808000000000e+05 2.980232238770e-08-1.030510235333e+00-7.450580596924e-09
    9.416327203824e-01 3.225937500000e+02 3.133478815456e+00-8.725720604145e-09
   -2.528676758108e-10 1.000000000000e+00 2.197000000000e+03 0.000000000000e+00
    2.400000000000e+00 0.000000000000e+00-8.381903171539e-09 7.200000000000e+01
    2.736000000000e+05 4.000000000000e+00
24 22  2 16  6  0  0.0 2.742689102888e-04-2.046363078989e-12 0.000000000000e+00
    6.500000000000e+01 3.621875000000e+01 5.269148052595e-09-1.812303850507e+00
    1.877546310425e-06 1.234020490665e-02 6.012618541718e-06 5.153689201355e+03
    2.808000000000e+05 1.732259988785e-07 1.140947972148e+00-1.769512891769e-07
    9.342134216246e-01 2.481875000000e+02 8.073983081346e-01-8.236057350562e-09
    5.346651280915e-10 1.000000000000e+00 2.197000000000e+03 0.000000000000e+00
    2.400000000000e+00 0.000000000000e+00 2.328306436539e-09 6.500000000000e+01
    2.736000000000e+05 4.000000000000e+00
26 22  2 16  6  0  0.0 1.836265437305e-04 3.183231456205e-12 0.000000000000e+00
    5.800000000000e+01-3.834375000000e+01 5.267362263924e-09 1.944411800145e+00
   -1.968815922737e-06 6.877418025397e-03 6.567686796188e-06 5.153695474625e+03
    2.808000000000e+05-8.381903171539e-08 2.213107501291e+00 3.539025783539e-08
    9.383653952567e-01 2.425000000000e+02 3.700958694642e-01-8.399992750558e-09
   -5.232360805973e-10 1.000000000000e+00 2.197000000000e+03 0.000000000000e+00
    2.400000000000e+00 0.000000000000e+00 6.984919309616e-09 5.800000000000e+01
    2.736000000000e+05 4.000000000000e+00
25 22  2 16  6  0  0.0 2.861912362278e-04 5.343281372916e-12 0.000000000000e+00
    1.010000000000e+02-3.778125000000e+01 4.648407910562e-09 2.597083290258e+00
   -2.017244696617e-06 1.050559547730e-02 7.236376404762e-06 5.153705345154e+03
    2.808000000000e+05 7.823109626770e-08 2.260122654266e+00-1.434236764908e-07
    9.575559004925e-01 2.372812500000e+02 9.814269477546e-01-7.926401595014e-09
   -4.910918845196e-10 1.000000000000e+00 2.197000000000e+03 0.000000000000e+00
    2.400000000000e+00 0.000000000000e+00 5.587935447693e-09 1.010000000000e+02
    2.736000000000e+05 4.000000000000e+00
23 22  2 16  6  0  0.0 9.075738489628e-07-3.524291969370e-12 0.000000000000e+00
    1.600000000000e+01-1.125937500000e+02 4.551975322329e-09-2.824762782708e+00
   -5.817040801048e-06 1.970394514501e-03 3.550201654434e-06 5.153705614090e+03
    2.808000000000e+05-2.235174179077e-08-9.036763160315e-01 4.097819328308e-08
    9.673892393705e-01 3.158125000000e+02 2.963868488334e+00-8.276773332260e-09
   -3.853731951976e-10 1.000000000000e+00 2.197000000000e+03 0.000000000000e+00
    2.400000000000e+00 0.000000000000e+00-8.381903171539e-09 7.840000000000e+02
    2.736000000000e+05 4.000000000000e+00
18 22  2 16  6  0  0.0 2.391715534031e-04-8.071765478235e-12 0.000000000000e+00
    2.210000000000e+02 9.037500000000e+01 4.642336229081e-09-1.907979452145e+00
    4.567205905914e-06 2.097921329550e-03 2.482905983925e-06 5.153619470596e+03
    2.808000000000e+05-1.862645149231e-09-1.903793228675e+00-8.754432201385e-08
    9.704672906923e-01 3.391250000000e+02 3.107095355610e+00-8.395349700013e-09
    3.389426897521e-10 1.000000000000e+00 2.197000000000e+03 0.000000000000e+00
    2.400000000000e+00 0.000000000000e+00-8.381903171539e-09 4.770000000000e+02
    2.736000000000e+05 4.000000000000e+00
28 22  2 16  6  0  0.0 3.994568251073e-04-8.185452315956e-12 0.000000000000e+00
    2.100000000000e+01-2.987500000000e+01 4.534831751088e-09 5.525435675203e-01
   -1.674517989159e-06 1.681054802611e-02 8.119270205498e-06 5.153691846848e+03
    2.808000000000e+05-1.359730958939e-07 2.358941149607e+00-1.695007085800e-07
    9.692915858566e-01 2.305625000000e+02-1.288249544650e+00-8.238914612435e-09
   -5.382367054335e-10 1.000000000000e+00 2.197000000000e+03 0.000000000000e+00
    2.400000000000e+00 6.300000000000e+01-1.117587089539e-08 2.100000000000e+01
    2.736000000000e+05 4.000000000000e+00
14 22  2 16  6 59 44.0-8.443603292108e-05-4.433786671143e-12 0.000000000000e+00
    1.450000000000e+02-3.225000000000e+01 4.755555230821e-09-2.844614421586e+00
   -1.534819602966e-06 1.443025539629e-03 7.472932338715e-06 5.153644386292e+03
    2.843840000000e+05-2.421438694000e-08 2.305526976441e+00 1.862645149231e-08
    9.535652896504e-01 2.318437500000e+02 3.019869134311e+00-8.092122783681e-09
   -4.639478967207e-10 1.000000000000e+00 2.197000000000e+03 0.000000000000e+00
    2.400000000000e+00 0.000000000000e+00-7.450580596924e-09 1.450000000000e+02
    2.772000000000e+05 4.000000000000e+00
 2 22  2 16  8  0  0.0-6.509493105114e-04-6.821210263297e-13 0.000000000000e+00
    1.170000000000e+02 8.946875000000e+01 4.836272878749e-09-9.142853920907e-01
    4.904344677925e-06 2.067376661580e-02 3.887340426445e-06 5.153689588547e+03
    2.880000000000e+05-3.036111593246e-07-2.000968812886e+00 1.415610313416e-07
    9.650376687782e-01 3.170312500000e+02-1.441780127244e+00-8.677147152294e-09
    4.600191616446e-10 1.000000000000e+00 2.197000000000e+03 0.000000000000e+00
    3.400000000000e+00 0.000000000000e+00-1.769512891769e-08 1.170000000000e+02
    2.808000000000e+05 4.000000000000e+00
 1 22  2 16  8  0  0.0 4.302379675210e-04-9.436007530894e-12 0.000000000000e+00
    8.900000000000e+01 8.181250000000e+01 4.230533361553e-09-1.058703086387e+00
    4.481524229050e-06 1.138436980546e-02 2.756714820862e-06 5.153666658401e+03
    2.880000000000e+05 1.844018697739e-07-1.911658603340e+00 1.974403858185e-07
    9.866810838676e-01 3.394062500000e+02 8.817133659865e-01-8.167840223330e-09
    3.271564845236e-10 1.000000000000e+00 2.197000000000e+03 0.000000000000e+00
    3.400000000000e+00 0.000000000000e+00 5.122274160385e-09 8.900000000000e+01
    2.808000000000e+05 4.000000000000e+00
 8 22  2 16  8  0  0.0-5.638459697366e-05-1.477928890381e-12 0.000000000000e+00
    1.900000000000e+01 7.512500000000e+01 4.040882604694e-09 1.203640741268e+00
    3.997236490250e-06 7.300412282348e-03 1.173652708530e-05 5.153726636887e+03
    2.880000000000e+05-2.607703208923e-08-2.991233529637e+00 1.173466444016e-07
    9.650881394519e-01 1.542812500000e+02 1.056674345242e-01-7.734250734016e-09
   -1.575065607805e-10 1.000000000000e+00 2.197000000000e+03 0.000000000000e+00
    2.400000000000e+00 0.000000000000e+00 5.122274160385e-09 1.900000000000e+01
    2.808000000000e+05 4.000000000000e+00
 5 22  2 16  8  0  0.0-7.160520181060e-05-1.364242052659e-12 0.000000000000e+00
    4.500000000000e+01-1.076562500000e+02 4.867345601624e-09 1.596088901795e+00
   -5.599111318588e-06 5.876218318008e-03 3.920868039131e-06 5.153668443680e+03
    2.880000000000e+05-2.030283212662e-07-9.165013955276e-01-1.117587089539e-08
    9.594943137609e-01 3.064687500000e+02 1.007647761831e+00-8.426422422888e-09
   -3.171560679661e-10 1.000000000000e+00 2.197000000000e+03 0.000000000000e+00
    2.400000000000e+00 0.000000000000e+00-1.117587089539e-08 4.500000000000e+01
    2.808000000000e+05 4.000000000000e+00
 3 22  2 16  8  0  0.0-1.236842945218e-04-1.728039933369e-11 0.000000000000e+00
    6.800000000000e+01-1.073125000000e+02 4.498758819934e-09-2.211108194057e+00
   -5.496665835381e-06 3.894719760865e-03 3.838911652565e-06 5.153680294037e+03
    2.880000000000e+05 7.823109626770e-08-8.760830946174e-01-4.097819328308e-08
    9.725272739160e-01 3.130937500000e+02 9.562606094184e-01-8.162840015051e-09
   -2.532248335450e-10 1.000000000000e+00 2.197000000000e+03 0.000000000000e+00
    2.400000000000e+00 0.000000000000e+00 1.862645149231e-09 6.800000000000e+01
    2.808000000000e+05 4.000000000000e+00
 6 22  2 16  8  0  0.0 2.031247131526e-04 1.193711796077e-11 0.000000000000e+00
    6.300000000000e+01 8.209375000000e+01 4.249105563731e-09-7.311158463668e-01
    4.047527909279e-06 2.697656396776e-03 2.855435013771e-06 5.153667804718e+03
    2.880000000000e+05-3.725290298462e-09-1.919934077829e+00-1.303851604462e-08
    9.860592954076e-01 3.384062500000e+02-9.576394097081e-01-8.181055059495e-09
    3.417999516257e-10 1.000000000000e+00 2.197000000000e+03 0.000000000000e+00
    2.400000000000e+00 0.000000000000e+00 3.725290298462e-09 6.300000000000e+01
    2.808000000000e+05 4.000000000000e+00
 4 22  2 16  8  0  0.0-1.892549917102e-04 2.273736754432e-12 0.000000000000e+00
    1.050000000000e+02-4.937500000000e+01 4.240176620376e-09 7.244728480135e-01
   -2.564862370491e-06 1.699174987152e-03 1.142546534538e-05 5.153659641266e+03
    2.880000000000e+05 9.313225746155e-09 2.049136856489e-01-2.980232238770e-08
    9.616063680907e-01 1.556562500000e+02-3.062520017909e+00-7.809253858197e-09
    1.553636143753e-10 1.000000000000e+00 2.197000000000e+03 0.000000000000e+00
    2.400000000000e+00 0.000000000000e+00-4.190951585770e-09 6.170000000000e+02
    2.808000000000e+05 4.000000000000e+00
19 22  2 16  8  0  0.0 1.195897348225e-04 5.002220859751e-12 0.000000000000e+00
    9.000000000000e+00 9.359375000000e+01 3.713726120171e-09-2.757477062319e+00
    4.906207323074e-06 8.974779048003e-03 1.074932515621e-05 5.153691177368e+03
    2.880000000000e+05 2.421438694000e-08-2.864523962761e+00 1.173466444016e-07
    9.789463082889e-01 1.748125000000e+02 2.008237202866e+00-7.464239486964e-09
    1.139333172086e-10 1.000000000000e+00 2.197000000000e+03 0.000000000000e+00
    2.400000000000e+00 0.000000000000e+00-1.583248376846e-08 9.000000000000e+00
    2.808000000000e+05 4.000000000000e+00
